HELIOS 1B               
1 25977U 99064A   26109.47053099  .00001002  00000+0  11597-3 0  9991
2 25977  98.1656  12.9059 0000604  43.1813 316.9450 14.87845008691327
TERRA                   
1 25994U 99068A   26109.61834503  .00000270  00000+0  64066-4 0  9993
2 25994  97.9514 161.4721 0003477  69.2531  82.6727 14.61055542401050
SL-16 R/B               
1 26070U 00006B   26109.42497659 -.00000046  00000+0  10274-5 0  9994
2 26070  71.0043  12.1836 0014728 124.0736 236.1787 14.15828320354323
TITAN 4B R/B            
1 26474U 00047B   26109.57272835  .00001898  00000+0  12305-3 0  9990
2 26474  67.9866 285.5172 0041756 348.3974  11.6208 15.09882249399083
ENVISAT                 
1 27386U 02009A   26109.65678963  .00000053  00000+0  31091-4 0  9990
2 27386  98.3791  62.2962 0001149  85.4459  87.4199 14.39050229265064
IDEFIX & ARIANE 42P R/B 
1 27422U 02021B   26109.53845353  .00000157  00000+0  76048-4 0  9997
2 27422  98.5915  47.6686 0012969  69.0286 291.2284 14.31052312249860
AQUA                    
1 27424U 02022A   26109.61073116  .00000571  00000+0  12362-3 0  9997
2 27424  98.4237  77.7426 0001913 102.9236 317.2045 14.62063993274710
CZ-4B R/B               
1 27432U 02024C   26109.62290251  .00000022  00000+0  34325-4 0  9995
2 27432  98.8756 162.8069 0049037 266.6244 256.8100 14.14554804235028
MIDORI II (ADEOS-II)    
1 27597U 02056A   26109.47601431  .00000190  00000+0  92456-4 0  9996
2 27597  98.7835  68.2540 0000482 146.8609 213.2603 14.29314814216121
H-2A R/B                
1 27601U 02056E   26109.62365925  .00000215  00000+0  89761-4 0  9997
2 27601  98.3269  68.4491 0071074  40.4351 132.1457 14.33789079219975
CZ-4B R/B               
1 28059U 03049C   26109.23115397  .00000273  00000+0  74019-4 0  9995
2 28059  98.6900 105.7362 0049290 107.5889 253.0699 14.55055241192495
CZ-2C R/B               
1 28222U 04012C   26109.15784290  .00063575  00000+0  53599-3 0  9996
2 28222  97.7137 178.4260 0013996 158.0883 202.0979 15.69495850210612
SL-16 R/B               
1 28353U 04021B   26109.47025995 -.00000105  00000+0 -29751-4 0  9992
2 28353  70.9999 146.9149 0006586 316.8926  43.1680 14.14605691128606
CZ-4B R/B               
1 28415U 04035C   26109.53895767  .00006709  00000+0  23209-3 0  9990
2 28415  97.3427 143.2967 0031723 180.3493 179.7731 15.29732845186152
CZ-2C R/B               
1 28480U 04046B   26109.50432418  .00000115  00000+0  57860-4 0  9997
2 28480  98.1971  21.9442 0140178  34.6107 326.4101 14.27007928114321
ARIANE 5 R/B            
1 28499U 04049H   26109.18755000  .00000679  00000+0  81462-4 0  9999
2 28499  98.2682 279.1771 0083265 219.1449 140.3723 14.85341917151805
CZ-2D R/B               
1 28738U 05024B   26109.51561683  .00046595  00000+0  49624-3 0  9998
2 28738  97.3545 126.2704 0003819 188.5414 171.5781 15.63857652146152
