[{"OBJECT_NAME":"HELIOS 1B","OBJECT_ID":"1999-064A","EPOCH":"2026-04-19T11:17:33.877536","MEAN_MOTION":14.87845008,"ECCENTRICITY":6.045e-5,"INCLINATION":98.1656,"RA_OF_ASC_NODE":12.9059,"ARG_OF_PERICENTER":43.1813,"MEAN_ANOMALY":316.945,"EPHEMERIS_TYPE":0,"CLASSIFICATION_TYPE":"U","NORAD_CAT_ID":25977,"ELEMENT_SET_NO":999,"REV_AT_EPOCH":69132,"BSTAR":0.0001159699,"MEAN_MOTION_DOT":1.002e-5,"MEAN_MOTION_DDOT":0},{"OBJECT_NAME":"TERRA","OBJECT_ID":"1999-068A","EPOCH":"2026-04-19T14:50:25.010592","MEAN_MOTION":14.61055542,"ECCENTRICITY":0.00034775,"INCLINATION":97.9514,"RA_OF_ASC_NODE":161.4721,"ARG_OF_PERICENTER":69.2531,"MEAN_ANOMALY":82.6727,"EPHEMERIS_TYPE":0,"CLASSIFICATION_TYPE":"U","NORAD_CAT_ID":25994,"ELEMENT_SET_NO":999,"REV_AT_EPOCH":40105,"BSTAR":6.4066141e-5,"MEAN_MOTION_DOT":2.7e-6,"MEAN_MOTION_DDOT":0},{"OBJECT_NAME":"SL-16 R/B","OBJECT_ID":"2000-006B","EPOCH":"2026-04-19T10:11:57.977376","MEAN_MOTION":14.1582832,"ECCENTRICITY":0.0014728,"INCLINATION":71.0043,"RA_OF_ASC_NODE":12.1836,"ARG_OF_PERICENTER":124.0736,"MEAN_ANOMALY":236.1787,"EPHEMERIS_TYPE":0,"CLASSIFICATION_TYPE":"U","NORAD_CAT_ID":26070,"ELEMENT_SET_NO":999,"REV_AT_EPOCH":35432,"BSTAR":1.027385e-6,"MEAN_MOTION_DOT":-4.6e-7,"MEAN_MOTION_DDOT":0},{"OBJECT_NAME":"TITAN 4B R/B","OBJECT_ID":"2000-047B","EPOCH":"2026-04-19T13:44:43.729440","MEAN_MOTION":15.09882249,"ECCENTRICITY":0.00417568,"INCLINATION":67.9866,"RA_OF_ASC_NODE":285.5172,"ARG_OF_PERICENTER":348.3974,"MEAN_ANOMALY":11.6208,"EPHEMERIS_TYPE":0,"CLASSIFICATION_TYPE":"U","NORAD_CAT_ID":26474,"ELEMENT_SET_NO":999,"REV_AT_EPOCH":39908,"BSTAR":0.00012305446,"MEAN_MOTION_DOT":1.898e-5,"MEAN_MOTION_DDOT":0},{"OBJECT_NAME":"ENVISAT","OBJECT_ID":"2002-009A","EPOCH":"2026-04-19T15:45:46.624032","MEAN_MOTION":14.39050229,"ECCENTRICITY":0.00011496,"INCLINATION":98.3791,"RA_OF_ASC_NODE":62.2962,"ARG_OF_PERICENTER":85.4459,"MEAN_ANOMALY":87.4199,"EPHEMERIS_TYPE":0,"CLASSIFICATION_TYPE":"U","NORAD_CAT_ID":27386,"ELEMENT_SET_NO":999,"REV_AT_EPOCH":26506,"BSTAR":3.1091261e-5,"MEAN_MOTION_DOT":5.3e-7,"MEAN_MOTION_DDOT":0},{"OBJECT_NAME":"IDEFIX & ARIANE 42P R/B","OBJECT_ID":"2002-021B","EPOCH":"2026-04-19T12:55:22.384992","MEAN_MOTION":14.31052312,"ECCENTRICITY":0.00129694,"INCLINATION":98.5915,"RA_OF_ASC_NODE":47.6686,"ARG_OF_PERICENTER":69.0286,"MEAN_ANOMALY":291.2284,"EPHEMERIS_TYPE":0,"CLASSIFICATION_TYPE":"U","NORAD_CAT_ID":27422,"ELEMENT_SET_NO":999,"REV_AT_EPOCH":24986,"BSTAR":7.6048135e-5,"MEAN_MOTION_DOT":1.57e-6,"MEAN_MOTION_DDOT":0},{"OBJECT_NAME":"AQUA","OBJECT_ID":"2002-022A","EPOCH":"2026-04-19T14:39:27.172224","MEAN_MOTION":14.62063993,"ECCENTRICITY":0.00019138,"INCLINATION":98.4237,"RA_OF_ASC_NODE":77.7426,"ARG_OF_PERICENTER":102.9236,"MEAN_ANOMALY":317.2045,"EPHEMERIS_TYPE":0,"CLASSIFICATION_TYPE":"U","NORAD_CAT_ID":27424,"ELEMENT_SET_NO":999,"REV_AT_EPOCH":27471,"BSTAR":0.0001236181,"MEAN_MOTION_DOT":5.71e-6,"MEAN_MOTION_DDOT":0},{"OBJECT_NAME":"CZ-4B R/B","OBJECT_ID":"2002-024C","EPOCH":"2026-04-19T14:56:58.776864","MEAN_MOTION":14.14554804,"ECCENTRICITY":0.00490379,"INCLINATION":98.8756,"RA_OF_ASC_NODE":162.8069,"ARG_OF_PERICENTER":266.6244,"MEAN_ANOMALY":256.81,"EPHEMERIS_TYPE":0,"CLASSIFICATION_TYPE":"U","NORAD_CAT_ID":27432,"ELEMENT_SET_NO":999,"REV_AT_EPOCH":23502,"BSTAR":3.4324647e-5,"MEAN_MOTION_DOT":2.2e-7,"MEAN_MOTION_DDOT":0},{"OBJECT_NAME":"MIDORI II (ADEOS-II)","OBJECT_ID":"2002-056A","EPOCH":"2026-04-19T11:25:27.636384","MEAN_MOTION":14.29314814,"ECCENTRICITY":4.827e-5,"INCLINATION":98.7835,"RA_OF_ASC_NODE":68.254,"ARG_OF_PERICENTER":146.8609,"MEAN_ANOMALY":213.2603,"EPHEMERIS_TYPE":0,"CLASSIFICATION_TYPE":"U","NORAD_CAT_ID":27597,"ELEMENT_SET_NO":999,"REV_AT_EPOCH":21612,"BSTAR":9.245632e-5,"MEAN_MOTION_DOT":1.9e-6,"MEAN_MOTION_DDOT":0},{"OBJECT_NAME":"H-2A R/B","OBJECT_ID":"2002-056E","EPOCH":"2026-04-19T14:58:04.159200","MEAN_MOTION":14.33789079,"ECCENTRICITY":0.00710746,"INCLINATION":98.3269,"RA_OF_ASC_NODE":68.4491,"ARG_OF_PERICENTER":40.4351,"MEAN_ANOMALY":132.1457,"EPHEMERIS_TYPE":0,"CLASSIFICATION_TYPE":"U","NORAD_CAT_ID":27601,"ELEMENT_SET_NO":999,"REV_AT_EPOCH":21997,"BSTAR":8.9760886e-5,"MEAN_MOTION_DOT":2.15e-6,"MEAN_MOTION_DDOT":0},{"OBJECT_NAME":"CZ-4B R/B","OBJECT_ID":"2003-049C","EPOCH":"2026-04-19T05:32:51.703008","MEAN_MOTION":14.55055241,"ECCENTRICITY":0.00492906,"INCLINATION":98.69,"RA_OF_ASC_NODE":105.7362,"ARG_OF_PERICENTER":107.5889,"MEAN_ANOMALY":253.0699,"EPHEMERIS_TYPE":0,"CLASSIFICATION_TYPE":"U","NORAD_CAT_ID":28059,"ELEMENT_SET_NO":999,"REV_AT_EPOCH":19249,"BSTAR":7.4019351e-5,"MEAN_MOTION_DOT":2.73e-6,"MEAN_MOTION_DDOT":0},{"OBJECT_NAME":"CZ-2C R/B","OBJECT_ID":"2004-012C","EPOCH":"2026-04-19T03:47:17.626560","MEAN_MOTION":15.6949585,"ECCENTRICITY":0.0013996,"INCLINATION":97.7137,"RA_OF_ASC_NODE":178.426,"ARG_OF_PERICENTER":158.0883,"MEAN_ANOMALY":202.0979,"EPHEMERIS_TYPE":0,"CLASSIFICATION_TYPE":"U","NORAD_CAT_ID":28222,"ELEMENT_SET_NO":999,"REV_AT_EPOCH":21061,"BSTAR":0.00053599373,"MEAN_MOTION_DOT":0.00063575,"MEAN_MOTION_DDOT":0},{"OBJECT_NAME":"SL-16 R/B","OBJECT_ID":"2004-021B","EPOCH":"2026-04-19T11:17:10.459680","MEAN_MOTION":14.14605691,"ECCENTRICITY":0.00065866,"INCLINATION":70.9999,"RA_OF_ASC_NODE":146.9149,"ARG_OF_PERICENTER":316.8926,"MEAN_ANOMALY":43.168,"EPHEMERIS_TYPE":0,"CLASSIFICATION_TYPE":"U","NORAD_CAT_ID":28353,"ELEMENT_SET_NO":999,"REV_AT_EPOCH":12860,"BSTAR":-2.9751173e-5,"MEAN_MOTION_DOT":-1.05e-6,"MEAN_MOTION_DDOT":0},{"OBJECT_NAME":"CZ-4B R/B","OBJECT_ID":"2004-035C","EPOCH":"2026-04-19T12:56:05.942688","MEAN_MOTION":15.29732845,"ECCENTRICITY":0.00317237,"INCLINATION":97.3427,"RA_OF_ASC_NODE":143.2967,"ARG_OF_PERICENTER":180.3493,"MEAN_ANOMALY":179.7731,"EPHEMERIS_TYPE":0,"CLASSIFICATION_TYPE":"U","NORAD_CAT_ID":28415,"ELEMENT_SET_NO":999,"REV_AT_EPOCH":18615,"BSTAR":0.00023209018,"MEAN_MOTION_DOT":6.709e-5,"MEAN_MOTION_DDOT":0},{"OBJECT_NAME":"CZ-2C R/B","OBJECT_ID":"2004-046B","EPOCH":"2026-04-19T12:06:13.609152","MEAN_MOTION":14.27007928,"ECCENTRICITY":0.01401787,"INCLINATION":98.1971,"RA_OF_ASC_NODE":21.9442,"ARG_OF_PERICENTER":34.6107,"MEAN_ANOMALY":326.4101,"EPHEMERIS_TYPE":0,"CLASSIFICATION_TYPE":"U","NORAD_CAT_ID":28480,"ELEMENT_SET_NO":999,"REV_AT_EPOCH":11432,"BSTAR":5.7860209e-5,"MEAN_MOTION_DOT":1.15e-6,"MEAN_MOTION_DDOT":0},{"OBJECT_NAME":"ARIANE 5 R/B","OBJECT_ID":"2004-049H","EPOCH":"2026-04-19T04:30:04.320000","MEAN_MOTION":14.85341917,"ECCENTRICITY":0.00832652,"INCLINATION":98.2682,"RA_OF_ASC_NODE":279.1771,"ARG_OF_PERICENTER":219.1449,"MEAN_ANOMALY":140.3723,"EPHEMERIS_TYPE":0,"CLASSIFICATION_TYPE":"U","NORAD_CAT_ID":28499,"ELEMENT_SET_NO":999,"REV_AT_EPOCH":15180,"BSTAR":8.1461588e-5,"MEAN_MOTION_DOT":6.79e-6,"MEAN_MOTION_DDOT":0},{"OBJECT_NAME":"CZ-2D R/B","OBJECT_ID":"2005-024B","EPOCH":"2026-04-19T12:22:29.294112","MEAN_MOTION":15.63857652,"ECCENTRICITY":0.00038192,"INCLINATION":97.3545,"RA_OF_ASC_NODE":126.2704,"ARG_OF_PERICENTER":188.5414,"MEAN_ANOMALY":171.5781,"EPHEMERIS_TYPE":0,"CLASSIFICATION_TYPE":"U","NORAD_CAT_ID":28738,"ELEMENT_SET_NO":999,"REV_AT_EPOCH":14615,"BSTAR":0.00049624121,"MEAN_MOTION_DOT":0.00046595,"MEAN_MOTION_DDOT":0}]
